[{"OBJECT_NAME":"ION SCV-008","OBJECT_ID":"2023-001AU","EPOCH":"2026-03-09T19:46:58.662912","MEAN_MOTION":15.2722664,"ECCENTRICITY":0.00151921,"INCLINATION":97.5676,"RA_OF_ASC_NODE":163.606,"ARG_OF_PERICENTER":8.542,"MEAN_ANOMALY":351.6074,"EPHEMERIS_TYPE":0,"CLASSIFICATION_TYPE":"U","NORAD_CAT_ID":55051,"ELEMENT_SET_NO":999,"REV_AT_EPOCH":17616,"BSTAR":0.00031422806,"MEAN_MOTION_DOT":8.336e-5,"MEAN_MOTION_DDOT":0},{"OBJECT_NAME":"STARLINK-30271","OBJECT_ID":"2023-124G","EPOCH":"2026-03-09T15:32:23.365824","MEAN_MOTION":15.30174088,"ECCENTRICITY":0.0001531,"INCLINATION":53.1609,"RA_OF_ASC_NODE":207.2469,"ARG_OF_PERICENTER":98.7407,"MEAN_ANOMALY":261.3767,"EPHEMERIS_TYPE":0,"CLASSIFICATION_TYPE":"U","NORAD_CAT_ID":57669,"ELEMENT_SET_NO":999,"REV_AT_EPOCH":14355,"BSTAR":0.0001297,"MEAN_MOTION_DOT":3.481e-5,"MEAN_MOTION_DDOT":0}]
